     3.00           N                   E                   RINEX VERSION / TYPE
BRD_USR             ESA                 20190115 201654  UTCPGM / RUN BY / DATE
 GAL   3.5750E+01  1.3672E-01 -6.1035E-05  0.0000E+00       IONOSPHERIC CORR
GAUT  1.8626451492E-09-8.881784197E-16 172800 2036 GSTB   0 TIME SYSTEM CORR
GPGA -4.4528860599E-09-2.442490654E-14 259200 2036 GSTB   0 TIME SYSTEM CORR
                                                            END OF HEADER
E08 2019 01 15 18 10 00 6.422815960832E-03-7.460698725481E-12 0.000000000000E+00
     1.300000000000E+01-3.771875000000E+01 3.435857402966E-09-1.213692466020E+00
    -1.743435859680E-06 2.106991596520E-04 8.238479495049E-06 5.440612487793E+03
     2.382000000000E+05-7.450580596924E-09 1.110863352969E+00 2.421438694000E-08
     9.583989977366E-01 1.627812500000E+02 4.481956265869E-01-5.654878405527E-09
    -1.878649681871E-10 2.580000000000E+02 2.036000000000E+03 0.000000000000E+00
     3.120000000000E+00 0.000000000000E+00-8.847564458847E-09 0.000000000000E+00
     2.394000000000E+05 0.000000000000E+00 0.000000000000E+00 0.000000000000E+00
E21 2019 01 15 18 10 00-5.145907634869E-04-1.847411112976E-12 0.000000000000E+00
     1.300000000000E+01 1.112187500000E+02 2.971195190777E-09 1.228749850249E+00
     5.163252353668E-06 4.397938027978E-05 4.237517714500E-06 5.440626626968E+03
     2.382000000000E+05-3.725290298462E-09-3.073767366589E+00-3.725290298462E-09
     9.896643176170E-01 2.627500000000E+02 6.431751022304E-01-5.727381425568E-09
     5.857386840816E-11 2.580000000000E+02 2.036000000000E+03 0.000000000000E+00
     3.120000000000E+00 0.000000000000E+00-2.328306436539E-09 0.000000000000E+00
     2.394500000000E+05 0.000000000000E+00 0.000000000000E+00 0.000000000000E+00
E21 2019 01 15 18 10 00-5.145909381099E-04-1.847411112976E-12 0.000000000000E+00
     1.300000000000E+01 1.112187500000E+02 2.971195190777E-09 1.228749850249E+00
     5.163252353668E-06 4.397938027978E-05 4.237517714500E-06 5.440626626968E+03
     2.382000000000E+05-3.725290298462E-09-3.073767366589E+00-3.725290298462E-09
     9.896643176170E-01 2.627500000000E+02 6.431751022304E-01-5.727381425568E-09
     5.857386840816E-11 5.210000000000E+02 2.036000000000E+03 0.000000000000E+00
     3.120000000000E+00 0.000000000000E+00-2.328306436539E-09-2.793967723846E-09
     2.394550000000E+05 0.000000000000E+00 0.000000000000E+00 0.000000000000E+00
E01 2019 01 15 18 20 00-5.214468110353E-04-8.114398042380E-12 0.000000000000E+00
     1.400000000000E+01 1.142812500000E+02 2.977266872259E-09 1.709355651536E+00
     5.433335900307E-06 7.934845052660E-05 4.323199391365E-06 5.440618850708E+03
     2.388000000000E+05 2.421438694000E-08-3.071161065386E+00-2.980232238770E-08
     9.901006797475E-01 2.589687500000E+02-5.642820251142E-01-5.745239312278E-09
     7.178870457341E-11 5.210000000000E+02 2.036000000000E+03 0.000000000000E+00
     3.120000000000E+00 0.000000000000E+00-4.656612873077E-09-5.122274160385E-09
     2.394850000000E+05 0.000000000000E+00 0.000000000000E+00 0.000000000000E+00
E02 2019 01 15 18 20 00 4.346272908151E-05 1.534772309242E-12 0.000000000000E+00
     1.400000000000E+01 9.712500000000E+01 2.902263748077E-09-1.877981639599E+00
     4.598870873451E-06 2.504263538867E-04 4.515051841736E-06 5.440622505188E+03
     2.388000000000E+05 9.685754776001E-08-3.071193799641E+00 5.587935447693E-09
     9.901088984213E-01 2.565625000000E+02-1.202541541196E-01-5.697380175896E-09
     3.214419607765E-12 5.210000000000E+02 2.036000000000E+03 0.000000000000E+00
     3.120000000000E+00 0.000000000000E+00-6.053596735001E-09-7.683411240578E-09
     2.394850000000E+05 0.000000000000E+00 0.000000000000E+00 0.000000000000E+00
E04 2019 01 15 18 20 00-2.006987342611E-04-7.887024366937E-12 0.000000000000E+00
     1.400000000000E+01-5.143750000000E+01 3.585149335860E-09 2.788123604425E-01
    -2.348795533180E-06 6.981298793107E-05 7.878988981247E-06 5.440610361099E+03
     2.388000000000E+05 2.048909664154E-08 1.119508639983E+00-2.235174179077E-08
     9.524561300323E-01 1.669062500000E+02 2.174630791107E+00-5.761668568051E-09
    -2.625109346341E-10 5.210000000000E+02 2.036000000000E+03 0.000000000000E+00
     3.120000000000E+00 0.000000000000E+00-7.916241884232E-09-8.847564458847E-09
     2.394850000000E+05 0.000000000000E+00 0.000000000000E+00 0.000000000000E+00
E07 2019 01 15 18 20 00-1.131667522714E-04-7.091216502886E-12 0.000000000000E+00
     1.400000000000E+01-3.212500000000E+01 3.553005139783E-09-1.431889171337E+00
    -1.613050699234E-06 1.334205735475E-04 8.182600140572E-06 5.440611362457E+03
     2.388000000000E+05 3.166496753693E-08 1.119458744236E+00 5.960464477539E-08
     9.524559705742E-01 1.583750000000E+02-4.581247046757E-02-5.742382050405E-09
    -2.150089559860E-10 5.210000000000E+02 2.036000000000E+03 0.000000000000E+00
     3.120000000000E+00 0.000000000000E+00 2.328306436539E-10 2.328306436539E-10
     2.394850000000E+05 0.000000000000E+00 0.000000000000E+00 0.000000000000E+00
E08 2019 01 15 18 20 00 6.422810431104E-03-7.460698725481E-12 0.000000000000E+00
     1.400000000000E+01-3.896875000000E+01 3.426928459611E-09-1.138468245544E+00
    -1.795589923859E-06 2.108691260219E-04 8.180737495422E-06 5.440612979889E+03
     2.388000000000E+05-7.450580596924E-09 1.110859951684E+00 2.235174179077E-08
     9.583988909436E-01 1.642187500000E+02 4.473571082764E-01-5.653449774590E-09
    -1.875078104529E-10 5.210000000000E+02 2.036000000000E+03 0.000000000000E+00
     3.120000000000E+00 0.000000000000E+00-8.847564458847E-09-1.001171767712E-08
     2.394850000000E+05 0.000000000000E+00 0.000000000000E+00 0.000000000000E+00
E11 2019 01 15 18 20 00 5.719843495172E-03 5.684341886081E-13 0.000000000000E+00
     1.400000000000E+01-7.962500000000E+01 2.606179986429E-09-2.180763046723E+00
    -3.606081008911E-06 2.864300040528E-04 9.436160326004E-06 5.440601531982E+03
     2.388000000000E+05 1.117587089539E-08-9.858490887088E-01 6.519258022308E-08
     9.820017736184E-01 1.497187500000E+02-3.426598064135E-01-5.340222441700E-09
     1.964367538078E-10 5.210000000000E+02 2.036000000000E+03 0.000000000000E+00
     3.120000000000E+00 0.000000000000E+00-1.862645149231E-08-2.002343535423E-08
     2.394850000000E+05 0.000000000000E+00 0.000000000000E+00 0.000000000000E+00
E14 2019 01 15 18 20 00 6.459458032623E-03-5.556444193644E-12 0.000000000000E+00
     1.400000000000E+01-1.061875000000E+02 2.334382950706E-09 7.333296715186E-01
    -6.971880793571E-06 1.662800932536E-01 4.988163709641E-06 5.289380462646E+03
     2.388000000000E+05 3.874301910400E-06-1.588413311493E+00-5.265697836876E-06
     8.826540047565E-01 2.626875000000E+02 1.458651265103E+00-3.839445642608E-09
     7.561029232931E-10 5.210000000000E+02 2.036000000000E+03 0.000000000000E+00
     3.120000000000E+00 4.550000000000E+02 3.306195139885E-08 3.725290298462E-08
     2.394850000000E+05 0.000000000000E+00 0.000000000000E+00 0.000000000000E+00
E19 2019 01 15 18 20 00-9.098032023758E-06 3.126388037344E-13 0.000000000000E+00
     1.400000000000E+01-4.771875000000E+01 3.530147044794E-09 9.120935516718E-01
    -2.205371856689E-06 1.306509366259E-04 8.264556527138E-06 5.440610830307E+03
     2.388000000000E+05 2.980232238770E-08 1.116212511463E+00-2.048909664154E-08
     9.581848426219E-01 1.627187500000E+02 2.401913603080E+00-5.696308702693E-09
    -2.832260832175E-10 5.210000000000E+02 2.036000000000E+03 0.000000000000E+00
     3.120000000000E+00 0.000000000000E+00-8.614733815193E-09-9.080395102501E-09
     2.394850000000E+05 0.000000000000E+00 0.000000000000E+00 0.000000000000E+00
E21 2019 01 15 18 20 00-5.145920440555E-04-1.847411112976E-12 0.000000000000E+00
     1.400000000000E+01 1.107187500000E+02 2.975481083588E-09 1.301620014635E+00
     5.129724740982E-06 4.397437442094E-05 4.243105649948E-06 5.440626760483E+03
     2.388000000000E+05 7.450580596924E-09-3.073770737152E+00 1.862645149231E-09
     9.896643424866E-01 2.626875000000E+02 6.446896554662E-01-5.733810264784E-09
     5.214502919263E-11 5.210000000000E+02 2.036000000000E+03 0.000000000000E+00
     3.120000000000E+00 0.000000000000E+00-2.328306436539E-09-2.793967723846E-09
     2.394850000000E+05 0.000000000000E+00 0.000000000000E+00 0.000000000000E+00
E25 2019 01 15 18 20 00 1.922898285557E-03-1.139710548159E-11 0.000000000000E+00
     1.400000000000E+01 1.000312500000E+02 2.853333138493E-09 1.775623050742E-01
     4.684552550316E-06 1.755121629685E-04 4.544854164124E-06 5.440627925873E+03
     2.388000000000E+05-6.332993507385E-08-3.073780452391E+00 5.774199962616E-08
     9.896698591506E-01 2.568437500000E+02-1.371240675164E+00-5.621662736246E-09
     8.286059433349E-11 5.210000000000E+02 2.036000000000E+03 0.000000000000E+00
     3.120000000000E+00 0.000000000000E+00-1.164153218269E-09-1.629814505577E-09
     2.394850000000E+05 0.000000000000E+00 0.000000000000E+00 0.000000000000E+00
E26 2019 01 15 18 20 00 5.016158684157E-03-4.331468517194E-11 0.000000000000E+00
     1.400000000000E+01-6.506250000000E+01 2.684754687952E-09 1.810439908546E+00
    -2.976506948471E-06 3.192600561306E-04 1.104921102524E-05 5.440611785889E+03
     2.388000000000E+05 1.303851604462E-08-9.822362267214E-01 3.725290298462E-08
     9.783593489825E-01 1.096562500000E+02-1.967829806547E+00-5.441298080477E-09
     2.525105180766E-10 5.210000000000E+02 2.036000000000E+03 0.000000000000E+00
     3.120000000000E+00 0.000000000000E+00 1.164153218269E-09 1.164153218269E-09
     2.394850000000E+05 0.000000000000E+00 0.000000000000E+00 0.000000000000E+00
